OBJECT_NAME,OBJECT_ID,EPOCH,MEAN_MOTION,ECCENTRICITY,INCLINATION,RA_OF_ASC_NODE,ARG_OF_PERICENTER,MEAN_ANOMALY,EPHEMERIS_TYPE,CLASSIFICATION_TYPE,NORAD_CAT_ID,ELEMENT_SET_NO,REV_AT_EPOCH,BSTAR,MEAN_MOTION_DOT,MEAN_MOTION_DDOT
FLOCK 4BE-7,2024-149P,2026-07-07T17:47:20.842080,15.41228317,.0003775,97.3752,271.9967,169.1066,191.0263,0,U,60481,999,10541,.39831E-3,.16481E-3,0
TOMORROW-S2,2024-149T,2026-07-07T17:30:28.630656,15.33066234,.0003177,97.3812,269.6492,168.1484,191.9833,0,U,60485,999,10523,.16555E-3,.5209E-4,0
FLOCK 4BE-36,2024-149U,2026-07-07T00:37:59.986272,15.43353640,.00041409,97.3735,272.7003,175.2705,184.8583,0,U,60486,999,10541,.29345017E-3,.13008E-3,0
FLOCK 4BE-25,2024-149V,2026-07-07T18:18:17.739648,15.39400433,.0003165,97.3790,272.0594,158.7620,201.3758,0,U,60487,999,10540,.25335E-3,.9831E-4,0
FLOCK 4BE-31,2024-149W,2026-07-07T18:01:33.032064,15.44940045,.0003285,97.3790,274.3529,170.1346,189.9968,0,U,60488,999,10555,.30829E-3,.14426E-3,0
FLOCK 4BE-20,2024-149X,2026-07-07T16:06:36.661824,15.38668067,.0004339,97.3688,270.7948,173.8543,186.2757,0,U,60489,999,10536,.26063E-3,.9877E-4,0
FLOCK 4BE-23,2024-149Y,2026-07-07T16:00:26.476704,15.38226346,.0003912,97.3770,271.1770,177.3071,182.8195,0,U,60490,999,10534,.25339E-3,.9462E-4,0
FLOCK 4BE-17,2024-149AA,2026-07-07T18:03:40.981824,15.40413939,.0003871,97.3763,272.2915,165.6669,194.4688,0,U,60492,999,10542,.27024E-3,.1085E-3,0
NUSAT-50 (NANCY ROMAN),2024-149AB,2026-07-07T18:28:06.826944,15.30230523,.0004737,97.3778,269.8859,119.2952,240.8763,0,U,60493,999,10527,.22449E-3,.6491E-4,0
FLOCK 4BE-22,2024-149AC,2026-07-07T18:43:48.921312,15.41823095,.0004193,97.3725,272.5445,175.4124,184.7162,0,U,60494,999,10547,.2905E-3,.12231E-3,0
FLOCK 4BE-34,2024-149AD,2026-07-07T17:35:24.868608,15.41790138,.0004112,97.3776,273.3318,182.7905,177.3320,0,U,60495,999,10549,.27087E-3,.11385E-3,0
TYCHE,2024-149AE,2026-07-07T17:26:13.530336,15.25931151,.0002744,97.3746,266.2678,177.5417,182.5835,0,U,60496,999,10503,.11828E-3,.2962E-4,0
FLOCK 4BE-32,2024-149AF,2026-07-07T18:03:29.026656,15.42898146,.0004325,97.3711,272.9111,180.8811,179.2430,0,U,60497,999,10550,.2809E-3,.12258E-3,0
NUSAT-48 (HENRIETTA LEAVITT),2024-149AG,2026-07-06T04:31:58.795680,15.30170218,.00039678,97.3910,268.5926,187.0344,173.0842,0,U,60498,999,10504,.32447524E-3,.94E-4,0
NUSAT-49 (KLARA DAN VON NEUMANN),2024-149AJ,2026-07-07T17:38:37.088736,15.30298285,.0001709,97.3772,269.8843,186.1553,173.9667,0,U,60500,999,10527,.19495E-3,.5637E-4,0
FLOCK 4BE-11,2024-149AK,2026-07-07T19:13:32.657088,15.43691986,.0004404,97.3691,273.2099,179.6010,180.5242,0,U,60501,999,10553,.27773E-3,.12447E-3,0
YAM-7,2024-149AN,2026-07-07T18:18:58.957632,15.32112216,.0002892,97.3773,268.9320,193.0887,167.0280,0,U,60504,999,10520,.16923E-3,.5169E-4,0
FLOCK 4BE-24,2024-149AP,2026-07-07T17:18:10.899936,15.43889466,.0004417,97.3707,273.3935,193.1566,166.9568,0,U,60505,999,10553,.32481E-3,.14674E-3,0
LUR-1,2024-149AQ,2026-07-07T18:38:20.160672,15.30383292,.0003227,97.3730,267.4584,210.5247,149.5806,0,U,60506,999,10512,.16391E-3,.474E-4,0
TANAGER-1,2024-149AR,2026-07-07T02:41:45.033792,15.44037810,.00028093,97.2319,282.2964,175.8028,184.3245,0,U,60507,999,10611,.9323054E-5,.341E-5,0
EAGLEEYE,2024-149AS,2026-07-07T18:46:46.792128,15.75342587,.000496,97.3703,283.3204,198.7418,161.3665,0,U,60508,999,10617,.6606E-3,.100289E-2,0
FLOCK 4BE-29,2024-149AT,2026-07-07T18:47:08.780064,15.45016388,.0002936,97.3802,274.9755,195.4249,164.6910,0,U,60509,999,10559,.68032E-3,.32095E-3,0
TRANSPORTER-11 OBJECT AU,2024-149AU,2026-07-07T17:08:09.682080,15.40823789,.0003522,97.3720,272.6057,192.4761,167.6398,0,U,60510,999,10547,.26251E-3,.1068E-3,0
FLOCK 4BE-2,2024-149AV,2026-07-07T19:05:24.661248,15.55192203,.000493,97.3821,276.7131,193.2138,166.8987,0,U,60511,999,10570,.69026E-3,.46723E-3,0
FLOCK 4BE-13,2024-149AW,2026-07-07T17:23:54.296736,15.42467833,.0004505,97.3713,273.3570,178.2656,181.8608,0,U,60512,999,10553,.24135E-3,.10367E-3,0
FLOCK 4BE-27,2024-149AX,2026-07-07T19:10:48.109152,15.34825523,.000317,97.3818,270.6643,209.5219,150.5846,0,U,60513,999,10530,.19867E-3,.6628E-4,0
FLOCK 4BE-9,2024-149AY,2026-07-07T17:43:01.802784,15.41438050,.000298,97.3784,273.2170,192.5638,167.5535,0,U,60514,999,10548,.26835E-3,.11145E-3,0
